OBJECT_NAME,OBJECT_ID,EPOCH,MEAN_MOTION,ECCENTRICITY,INCLINATION,RA_OF_ASC_NODE,ARG_OF_PERICENTER,MEAN_ANOMALY,EPHEMERIS_TYPE,CLASSIFICATION_TYPE,NORAD_CAT_ID,ELEMENT_SET_NO,REV_AT_EPOCH,BSTAR,MEAN_MOTION_DOT,MEAN_MOTION_DDOT
STARLINK-37683,2026-123Q,2026-06-17T20:00:01.999008,15.76699730,.0000777,53.1585,238.0915,74.7108,321.2830,0,U,69367,999,325,-.1235E-1,-.1775319E-1,0
STARLINK-37687,2026-123R,2026-06-17T20:00:01.999008,15.80897478,.0000898,53.1579,238.0276,80.9849,346.1482,0,U,69368,999,325,-.21694E-3,-.43348E-3,0
STARLINK-37631,2026-123S,2026-06-17T20:00:01.999008,15.80923757,.0001171,53.1578,238.0370,93.0452,329.5783,0,U,69369,999,330,-.51276E-3,-.100963E-2,0
STARLINK-37673,2026-123T,2026-06-17T20:00:01.999008,15.80878850,.0001099,53.1575,238.0317,86.3828,338.7211,0,U,69370,999,330,-.21747E-4,-.499E-4,0
STARLINK-37645,2026-123U,2026-06-17T20:00:01.999008,15.80937377,.0000892,53.1572,238.0536,67.6867,346.6818,0,U,69371,999,331,-.67253E-3,-.131817E-2,0
STARLINK-37688,2026-123V,2026-06-17T20:00:01.999008,15.80906128,.0001133,53.1625,238.0229,80.5208,348.5359,0,U,69372,999,331,-.36425E-3,-.72102E-3,0
STARLINK-37685,2026-123W,2026-06-17T20:00:01.999008,15.80895296,.0001009,53.1572,238.0166,82.4262,349.5153,0,U,69373,999,331,-.16825E-3,-.3381E-3,0
STARLINK-37632,2026-123X,2026-06-17T20:00:01.999008,15.80884855,.000101,53.1572,238.0078,76.7432,359.4133,0,U,69374,999,326,-.35496E-4,-.7702E-4,0
STARLINK-37454,2026-123Y,2026-06-17T20:00:01.999008,15.80894548,.0000976,53.1572,237.9946,87.6008,354.8071,0,U,69375,999,340,-.17401E-3,-.34938E-3,0
STARLINK-37485,2026-123Z,2026-06-17T20:00:01.999008,15.80901112,.0001008,53.1572,237.9857,80.6927,5.9177,0,U,69376,999,340,-.24326E-3,-.48503E-3,0
STARLINK-37439,2026-123AA,2026-06-17T20:00:01.999008,15.80925341,.0001196,53.1573,237.9013,81.8349,45.3052,0,U,69377,999,326,-.51762E-3,-.10191E-2,0
STARLINK-37376,2026-123AB,2026-06-17T20:00:01.999008,15.78424393,.000111,53.1586,237.9363,57.6543,52.2849,0,U,69378,999,340,-.12745E-1,-.1953023E-1,0
STARLINK-37383,2026-123AC,2026-06-17T20:00:01.999008,15.80900259,.0001115,53.1573,237.8584,74.3897,72.8649,0,U,69379,999,340,-.25647E-3,-.51083E-3,0
STARLINK-37411,2026-123AD,2026-06-17T20:00:01.999008,15.80882307,.0000984,53.1572,237.9166,92.7536,26.6671,0,U,69380,999,340,-.91756E-4,-.18776E-3,0
STARLINK-37427,2026-123AE,2026-06-17T20:00:01.999008,15.80897661,.0001047,53.1574,237.8682,85.5455,57.0954,0,U,69381,999,331,.31762E-3,.62516E-3,0
QIANFAN-165,2026-124A,2026-06-17T19:41:20.264352,14.11172075,.0007587,88.9980,1.9682,159.9649,200.1836,0,U,69382,999,190,-.10032E+1,-.1678476E-1,0
QIANFAN-166,2026-124B,2026-06-17T19:34:29.116128,14.12927230,.000556,88.9979,1.9675,149.7088,210.4420,0,U,69383,999,190,-.10509E+1,-.1825654E-1,0
QIANFAN-167,2026-124C,2026-06-17T14:30:33.185664,14.12823064,.0005078,88.9978,1.9915,155.0127,205.1306,0,U,69384,999,187,-.10808E+1,-.1870751E-1,0
QIANFAN-168,2026-124D,2026-06-17T19:28:47.600256,14.13564394,.0005617,88.9977,1.9666,155.7256,204.4196,0,U,69385,999,190,-.10219E+1,-.1778304E-1,0
QIANFAN-169,2026-124E,2026-06-17T19:25:08.723136,14.14070415,.0004589,88.9978,1.9665,173.1754,186.9496,0,U,69386,999,190,-.10227E+1,-.1794831E-1,0
QIANFAN-170,2026-124F,2026-06-17T19:20:51.602784,14.15053425,.000276,88.9977,1.9658,199.8725,160.2355,0,U,69387,999,190,-.10116E+1,-.1827236E-1,0
QIANFAN-171,2026-124G,2026-06-17T19:16:17.666400,14.15929939,.000507,88.9977,1.9656,220.7213,139.3597,0,U,69388,999,190,-.10113E+1,-.185486E-1,0
QIANFAN-172,2026-124H,2026-06-17T19:18:24.810048,14.15894898,.0004013,88.9977,1.9657,220.9108,139.1779,0,U,69389,999,190,-.10414E+1,-.1905125E-1,0
QIANFAN-173,2026-124J,2026-06-17T15:51:33.830208,14.16709244,.000652,88.9977,1.9814,190.5607,169.5445,0,U,69390,999,188,-.10288E+1,-.1910598E-1,0
QIANFAN-174,2026-124K,2026-06-17T15:47:37.081248,14.17565395,.0008104,88.9977,1.9806,201.4562,158.6288,0,U,69391,999,188,-.10551E+1,-.198543E-1,0
QIANFAN-175,2026-124L,2026-06-17T15:47:04.803072,14.18167730,.0008248,88.9976,1.9806,204.8521,155.2271,0,U,69392,999,188,-.10552E+1,-.2006507E-1,0
QIANFAN-176,2026-124M,2026-06-17T17:25:07.772160,14.17787754,.0007587,88.9972,1.9717,219.0010,141.0632,0,U,69393,999,189,-.99017E+0,-.1878579E-1,0
QIANFAN-177,2026-124N,2026-06-17T13:59:30.431040,14.19018258,.0004629,88.9978,1.9883,206.6698,153.4254,0,U,69394,999,187,-.96792E+0,-.1878709E-1,0
QIANFAN-178,2026-124P,2026-06-17T14:01:04.633824,14.18670560,.000657,88.9978,1.9884,200.7464,159.3460,0,U,69395,999,187,-.10076E+1,-.1938767E-1,0
QIANFAN-179,2026-124Q,2026-06-17T19:01:37.329024,14.18702308,.0002787,88.9977,1.9641,281.8249,78.2628,0,U,69396,999,190,-.9921E+0,-.1911754E-1,0
