STARLINK-37683          
1 69367U 26123Q   26168.83335647 -.01775319  00000+0 -12350-1 0  9993
2 69367  53.1585 238.0915 0000777  74.7108 321.2830 15.76699730  3258
STARLINK-37687          
1 69368U 26123R   26168.83335647 -.00043348  00000+0 -21694-3 0  9996
2 69368  53.1579 238.0276 0000898  80.9849 346.1482 15.80897478  3250
STARLINK-37631          
1 69369U 26123S   26168.83335647 -.00100963  00000+0 -51276-3 0  9993
2 69369  53.1578 238.0370 0001171  93.0452 329.5783 15.80923757  3300
STARLINK-37673          
1 69370U 26123T   26168.83335647 -.00004990  00000+0 -21747-4 0  9999
2 69370  53.1575 238.0317 0001099  86.3828 338.7211 15.80878850  3302
STARLINK-37645          
1 69371U 26123U   26168.83335647 -.00131817  00000+0 -67253-3 0  9990
2 69371  53.1572 238.0536 0000892  67.6867 346.6818 15.80937377  3310
STARLINK-37688          
1 69372U 26123V   26168.83335647 -.00072102  00000+0 -36425-3 0  9999
2 69372  53.1625 238.0229 0001133  80.5208 348.5359 15.80906128  3312
STARLINK-37685          
1 69373U 26123W   26168.83335647 -.00033810  00000+0 -16825-3 0  9995
2 69373  53.1572 238.0166 0001009  82.4262 349.5153 15.80895296  3313
STARLINK-37632          
1 69374U 26123X   26168.83335647 -.00007702  00000+0 -35496-4 0  9993
2 69374  53.1572 238.0078 0001010  76.7432 359.4133 15.80884855  3264
STARLINK-37454          
1 69375U 26123Y   26168.83335647 -.00034938  00000+0 -17401-3 0  9990
2 69375  53.1572 237.9946 0000976  87.6008 354.8071 15.80894548  3403
STARLINK-37485          
1 69376U 26123Z   26168.83335647 -.00048503  00000+0 -24326-3 0  9998
2 69376  53.1572 237.9857 0001008  80.6927   5.9177 15.80901112  3402
STARLINK-37439          
1 69377U 26123AA  26168.83335647 -.00101910  00000+0 -51762-3 0  9995
2 69377  53.1573 237.9013 0001196  81.8349  45.3052 15.80925341  3261
STARLINK-37376          
1 69378U 26123AB  26168.83335647 -.01953023  00000+0 -12745-1 0  9993
2 69378  53.1586 237.9363 0001110  57.6543  52.2849 15.78424393  3402
STARLINK-37383          
1 69379U 26123AC  26168.83335647 -.00051083  00000+0 -25647-3 0  9995
2 69379  53.1573 237.8584 0001115  74.3897  72.8649 15.80900259  3405
STARLINK-37411          
1 69380U 26123AD  26168.83335647 -.00018776  00000+0 -91756-4 0  9994
2 69380  53.1572 237.9166 0000984  92.7536  26.6671 15.80882307  3405
STARLINK-37427          
1 69381U 26123AE  26168.83335647  .00062516  00000+0  31762-3 0  9994
2 69381  53.1574 237.8682 0001047  85.5455  57.0954 15.80897661  3312
QIANFAN-165             
1 69382U 26124A   26168.82037343 -.01678476  00000+0 -10032+1 0  9992
2 69382  88.9980   1.9682 0007587 159.9649 200.1836 14.11172075  1907
QIANFAN-166             
1 69383U 26124B   26168.81561477 -.01825654  00000+0 -10509+1 0  9993
2 69383  88.9979   1.9675 0005560 149.7088 210.4420 14.12927230  1906
QIANFAN-167             
1 69384U 26124C   26168.60455076 -.01870751  00000+0 -10808+1 0  9998
2 69384  88.9978   1.9915 0005078 155.0127 205.1306 14.12823064  1871
QIANFAN-168             
1 69385U 26124D   26168.81166204 -.01778304  00000+0 -10219+1 0  9991
2 69385  88.9977   1.9666 0005617 155.7256 204.4196 14.13564394  1905
QIANFAN-169             
1 69386U 26124E   26168.80912874 -.01794831  00000+0 -10227+1 0  9995
2 69386  88.9978   1.9665 0004589 173.1754 186.9496 14.14070415  1904
QIANFAN-170             
1 69387U 26124F   26168.80615281 -.01827236  00000+0 -10116+1 0  9991
2 69387  88.9977   1.9658 0002760 199.8725 160.2355 14.15053425  1900
QIANFAN-171             
1 69388U 26124G   26168.80298225 -.01854860  00000+0 -10113+1 0  9997
2 69388  88.9977   1.9656 0005070 220.7213 139.3597 14.15929939  1909
QIANFAN-172             
1 69389U 26124H   26168.80445382 -.01905125  00000+0 -10414+1 0  9991
2 69389  88.9977   1.9657 0004013 220.9108 139.1779 14.15894898  1907
QIANFAN-173             
1 69390U 26124J   26168.66080822 -.01910598  00000+0 -10288+1 0  9990
2 69390  88.9977   1.9814 0006520 190.5607 169.5445 14.16709244  1880
QIANFAN-174             
1 69391U 26124K   26168.65806807 -.01985430  00000+0 -10551+1 0  9999
2 69391  88.9977   1.9806 0008104 201.4562 158.6288 14.17565395  1886
QIANFAN-175             
1 69392U 26124L   26168.65769448 -.02006507  00000+0 -10552+1 0  9990
2 69392  88.9976   1.9806 0008248 204.8521 155.2271 14.18167730  1884
QIANFAN-176             
1 69393U 26124M   26168.72578440 -.01878579  00000+0 -99017+0 0  9996
2 69393  88.9972   1.9717 0007587 219.0010 141.0632 14.17787754  1896
QIANFAN-177             
1 69394U 26124N   26168.58299110 -.01878709  00000+0 -96792+0 0  9997
2 69394  88.9978   1.9883 0004629 206.6698 153.4254 14.19018258  1878
QIANFAN-178             
1 69395U 26124P   26168.58408141 -.01938767  00000+0 -10076+1 0  9997
2 69395  88.9978   1.9884 0006570 200.7464 159.3460 14.18670560  1876
QIANFAN-179             
1 69396U 26124Q   26168.79279316 -.01911754  00000+0 -99210+0 0  9994
2 69396  88.9977   1.9641 0002787 281.8249  78.2628 14.18702308  1909
